H1 CPF 01  gfz 2021 06 29 12  6802 tandemx   
H2 1003001  6202 36605    2021 06 29 12 59 42 2021 07 04 00 00 42   120 1 1  0 0 0
H9
10 0 59397  52542.000000  0    4285732.293   4903766.415   2237707.666
10 0 59397  52662.000000  0    4187967.594   4520510.995   3070618.578
10 0 59397  52782.000000  0    4009598.524   4060627.622   3849456.669
10 0 59397  52902.000000  0    3752497.878   3533564.683   4560519.021
10 0 59397  53022.000000  0    3420097.111   2949902.616   5191308.868
10 0 59397  53142.000000  0    3017337.611   2321135.841   5730757.302
10 0 59397  53262.000000  0    2550592.650   1659440.580   6169411.612
10 0 59397  53382.000000  0    2027563.382    977435.361   6499595.844
10 0 59397  53502.000000  0    1457148.009    287938.004   6715538.519
10 0 59397  53622.000000  0     849287.835   -396274.280   6813467.920
10 0 59397  53742.000000  0     214792.959  -1062701.506   6791675.275
10 0 59397  53862.000000  0    -434850.430  -1699349.494   6650542.347
10 0 59397  53982.000000  0   -1087688.029  -2294945.681   6392534.473
10 0 59397  54102.000000  0   -1731516.225  -2839138.663   6022158.503
10 0 59397  54222.000000  0   -2354107.699  -3322678.644   5545889.515
10 0 59397  54342.000000  0   -2943444.457  -3737578.487   4972065.815
10 0 59397  54462.000000  0   -3487954.286  -4077250.746   4310748.962
10 0 59397  54582.000000  0   -3976742.047  -4336616.600   3573550.528
10 0 59397  54702.000000  0   -4399811.093  -4512185.560   2773430.272
10 0 59397  54822.000000  0   -4748271.575  -4602104.600   1924468.788
10 0 59397  54942.000000  0   -5014530.842  -4606174.366   1041616.045
10 0 59397  55062.000000  0   -5192459.728  -4525830.986    140421.959
10 0 59397  55182.000000  0   -5277531.012  -4364094.598   -763245.455
10 0 59397  55302.000000  0   -5266926.139  -4125485.619  -1653488.983
10 0 59397  55422.000000  0   -5159606.446  -3815909.811  -2514671.457
10 0 59397  55542.000000  0   -4956347.143  -3442516.119  -3331696.697
10 0 59397  55662.000000  0   -4659735.216  -3013532.477  -4090276.805
10 0 59397  55782.000000  0   -4274132.057  -2538083.606  -4777181.553
10 0 59397  55902.000000  0   -3805601.323  -2025995.149  -5380464.990
10 0 59397  56022.000000  0   -3261805.133  -1487589.417  -5889665.590
10 0 59397  56142.000000  0   -2651871.618   -933476.873  -6295977.618
10 0 59397  56262.000000  0   -1986236.372   -374348.163  -6592392.237
10 0 59397  56382.000000  0   -1276460.734    179229.121  -6773806.393
10 0 59397  56502.000000  0    -535032.624    717004.937  -6837099.908
10 0 59397  56622.000000  0     224848.574   1229231.618  -6781183.451
10 0 59397  56742.000000  0     989500.249   1706835.317  -6607015.363
10 0 59397  56862.000000  0    1744997.375   2141573.400  -6317589.478
10 0 59397  56982.000000  0    2477421.061   2526175.174  -5917888.965
10 0 59397  57102.000000  0    3173111.450   2854463.397  -5414808.980
10 0 59397  57222.000000  0    3818919.596   3121454.378  -4817048.511
10 0 59397  57342.000000  0    4402457.744   3323436.901  -4134972.430
10 0 59397  57462.000000  0    4912341.864   3458026.490  -3380441.696
10 0 59397  57582.000000  0    5338419.843   3524193.447  -2566614.287
10 0 59397  57702.000000  0    5671981.023   3522265.231  -1707720.712
10 0 59397  57822.000000  0    5905942.433   3453900.714   -818815.316
10 0 59397  57942.000000  0    6035004.981   3322036.601     84490.492
10 0 59397  58062.000000  0    6055776.816   3130807.326    986308.234
10 0 59397  58182.000000  0    5966858.873   2885439.766   1870759.972
10 0 59397  58302.000000  0    5768889.801   2592126.625   2722266.372
10 0 59397  58422.000000  0    5464550.560   2257880.402   3525830.245
10 0 59397  58542.000000  0    5058526.133   1890371.479   4267307.902
10 0 59397  58662.000000  0    4557426.502   1497755.580   4933661.620
10 0 59397  58782.000000  0    3969672.549   1088494.626   5513188.538
10 0 59397  58902.000000  0    3305345.816    671175.493   5995726.541
10 0 59397  59022.000000  0    2576005.467    254330.558   6372826.518
10 0 59397  59142.000000  0    1794482.051   -153734.556   6637893.096
10 0 59397  59262.000000  0     974648.825   -545104.915   6786295.300
10 0 59397  59382.000000  0     131172.471   -912409.087   6815443.385
10 0 59397  59502.000000  0    -720750.073  -1248957.138   6724830.121
10 0 59397  59622.000000  0   -1565664.847  -1548862.511   6516038.286
10 0 59397  59742.000000  0   -2388139.688  -1807144.784   6192713.369
10 0 59397  59862.000000  0   -3173044.054  -2019811.755   5760504.998
10 0 59397  59982.000000  0   -3905830.401  -2183922.374   5226976.734
10 0 59397  60102.000000  0   -4572809.332  -2297627.908   4601478.725
10 0 59397  60222.000000  0   -5161411.636  -2360189.582   3894987.944
10 0 59397  60342.000000  0   -5660432.115  -2371971.825   3119918.319
10 0 59397  60462.000000  0   -6060250.925  -2334412.270   2289904.455
10 0 59397  60582.000000  0   -6353028.485  -2249970.029   1419560.917
10 0 59397  60702.000000  0   -6532867.333  -2122051.425    524218.349
10 0 59397  60822.000000  0   -6595934.012  -1954914.685   -380354.139
10 0 59397  60942.000000  0   -6540541.369  -1753556.619  -1278235.831
10 0 59397  61062.000000  0   -6367185.891  -1523584.394  -2153643.964
10 0 59397  61182.000000  0   -6078540.926  -1271076.071  -2991218.293
10 0 59397  61302.000000  0   -5679406.807  -1002433.535  -3776295.121
10 0 59397  61422.000000  0   -5176619.888   -724231.148  -4495165.431
10 0 59397  61542.000000  0   -4578923.145   -443063.828  -5135312.021
10 0 59397  61662.000000  0   -3896801.771   -165398.933  -5685621.519
10 0 59397  61782.000000  0   -3142288.311    102565.031  -6136567.805
10 0 59397  61902.000000  0   -2328743.405    355029.950  -6480364.638
10 0 59397  62022.000000  0   -1470616.578    586716.742  -6711088.501
10 0 59397  62142.000000  0    -583190.227    792969.883  -6824770.240
10 0 59397  62262.000000  0     317687.698    969847.265  -6819454.643
10 0 59397  62382.000000  0    1215878.456   1114192.260  -6695230.795
10 0 59397  62502.000000  0    2095235.349   1223688.715  -6454233.340
10 0 59397  62622.000000  0    2939888.430   1296898.086  -6100609.693
10 0 59397  62742.000000  0    3734526.749   1333277.222  -5640455.188
10 0 59397  62862.000000  0    4464673.016   1333176.764  -5081718.196
10 0 59397  62982.000000  0    5116949.804   1297820.635  -4434075.199
10 0 59397  63102.000000  0    5679330.884   1229266.589  -3708773.582
10 0 59397  63222.000000  0    6141371.483   1130347.960  -2918445.310
10 0 59397  63342.000000  0    6494413.668   1004597.703  -2076893.835
10 0 59397  63462.000000  0    6731761.814    856156.542  -1198855.292
10 0 59397  63582.000000  0    6848821.304    689666.219   -299738.249
10 0 59397  63702.000000  0    6843196.136    510151.164    604651.771
10 0 59397  63822.000000  0    6714744.195    322891.745   1498396.668
10 0 59397  63942.000000  0    6465588.080    133290.573   2365755.091
10 0 59397  64062.000000  0    6100078.318    -53262.890   3191449.271
10 0 59397  64182.000000  0    5624711.976   -231527.259   3960941.559
10 0 59397  64302.000000  0    5048008.591   -396538.193   4660694.504
10 0 59397  64422.000000  0    4380349.072   -543730.265   5278412.062
10 0 59397  64542.000000  0    3633777.035   -669048.250   5803254.855
10 0 59397  64662.000000  0    2821772.389   -769044.065   6226025.976
10 0 59397  64782.000000  0    1959000.827   -840958.970   6539326.757
10 0 59397  64902.000000  0    1061044.598   -882789.052   6737681.196
10 0 59397  65022.000000  0     144117.075   -893332.902   6817626.460
10 0 59397  65142.000000  0    -775230.908   -872220.230   6777768.212
10 0 59397  65262.000000  0   -1680408.748   -819921.709   6618802.553
10 0 59397  65382.000000  0   -2555083.986   -737738.935   6343504.202
10 0 59397  65502.000000  0   -3383475.763   -627775.177   5956681.798
10 0 59397  65622.000000  0   -4150641.580   -492887.250   5465100.399
10 0 59397  65742.000000  0   -4842752.142   -336619.862   4877369.721
10 0 59397  65862.000000  0   -5447347.936   -163122.989   4203798.310
10 0 59397  65982.000000  0   -5953572.140     22945.965   3456216.235
10 0 59397  66102.000000  0   -6352374.562    216533.427   2647769.515
10 0 59397  66222.000000  0   -6636683.987    412312.300   1792688.780
10 0 59397  66342.000000  0   -6801542.794    604812.497    906034.728
10 0 59397  66462.000000  0   -6844200.192    788555.953      3425.886
10 0 59397  66582.000000  0   -6764160.671    958193.343   -899245.612
10 0 59397  66702.000000  0   -6563185.743   1108638.456  -1786102.982
10 0 59397  66822.000000  0   -6245251.426   1235196.568  -2641570.768
10 0 59397  66942.000000  0   -5816463.342   1333685.276  -3450655.760
10 0 59397  67062.000000  0   -5284926.668   1400542.338  -4199213.999
10 0 59397  67182.000000  0   -4660579.786   1432918.945  -4874196.474
10 0 59397  67302.000000  0   -3954996.050   1428756.682  -5463871.394
10 0 59397  67422.000000  0   -3181159.216   1386846.545  -5958019.014
10 0 59397  67542.000000  0   -2353218.115   1306868.652  -6348098.301
10 0 59397  67662.000000  0   -1486224.564   1189412.993  -6627383.413
10 0 59397  67782.000000  0    -595859.559   1035981.011  -6791067.633
10 0 59397  67902.000000  0     301845.417    848967.450  -6836335.983
10 0 59397  68022.000000  0    1190788.793    631624.010  -6762409.057
10 0 59397  68142.000000  0    2055081.763    388003.873  -6570557.138
10 0 59397  68262.000000  0    2879326.188    122888.333  -6264080.077
10 0 59397  68382.000000  0    3648884.659   -158302.921  -5848256.820
10 0 59397  68502.000000  0    4350137.736   -449617.960  -5330262.666
10 0 59397  68622.000000  0    4970726.007   -744692.429  -4719057.747
10 0 59397  68742.000000  0    5499774.615  -1036882.292  -4025243.691
10 0 59397  68862.000000  0    5928092.625  -1319406.359  -3260889.340
10 0 59397  68982.000000  0    6248343.822  -1585496.211  -2439328.297
99
